{
  "norad_id": 65400,
  "name": "STARLINK-34876",
  "history": [
    {
      "epoch": "2026-03-28T21:34:24.553920Z",
      "apogee_km": 550.857825962933,
      "perigee_km": 548.125569204607,
      "latitude_deg": -1.2510221042817163e-05,
      "longitude_deg": 170.60296609808796,
      "height_km": 551.9736047823301,
      "semi_major_axis_km": 6927.62869758377,
      "eccentricity": 0.0001972,
      "inclination_deg": 97.6034,
      "raan_deg": 320.518,
      "arg_perigee_deg": 64.8657,
      "mean_anomaly_deg": 295.2774,
      "mean_motion_rev_day": 15.05656343
    },
    {
      "epoch": "2026-03-29T03:57:12.697056Z",
      "apogee_km": 550.8281726745199,
      "perigee_km": 548.1638050270085,
      "latitude_deg": 2.733793231396001e-05,
      "longitude_deg": 74.90204552962636,
      "height_km": 552.0011976727658,
      "semi_major_axis_km": 6927.632988850764,
      "eccentricity": 0.0001923,
      "inclination_deg": 97.6036,
      "raan_deg": 320.7797,
      "arg_perigee_deg": 65.2843,
      "mean_anomaly_deg": 294.8584,
      "mean_motion_rev_day": 15.05654944
    },
    {
      "epoch": "2026-03-30T02:17:00.749184Z",
      "apogee_km": 550.8541693448587,
      "perigee_km": 548.1440780932598,
      "latitude_deg": -3.8531039103091364e-05,
      "longitude_deg": 99.95217650050608,
      "height_km": 552.0536479932744,
      "semi_major_axis_km": 6927.636123719059,
      "eccentricity": 0.0001956,
      "inclination_deg": 97.6036,
      "raan_deg": 321.6971,
      "arg_perigee_deg": 68.0006,
      "mean_anomaly_deg": 292.1428,
      "mean_motion_rev_day": 15.05653922
    },
    {
      "epoch": "2026-03-30T05:28:24.744288Z",
      "apogee_km": 550.8242219190124,
      "perigee_km": 548.188669246575,
      "latitude_deg": 4.247177765504911e-05,
      "longitude_deg": 52.102177711424076,
      "height_km": 552.0589447328588,
      "semi_major_axis_km": 6927.643445582794,
      "eccentricity": 0.00019022,
      "inclination_deg": 97.6032,
      "raan_deg": 321.8281,
      "arg_perigee_deg": 67.2443,
      "mean_anomaly_deg": 292.8985,
      "mean_motion_rev_day": 15.05651535
    },
    {
      "epoch": "2026-03-30T13:26:54.641760Z",
      "apogee_km": 550.811524337666,
      "perigee_km": 548.1592148372456,
      "latitude_deg": 3.476287524480365e-05,
      "longitude_deg": -67.52241412336207,
      "height_km": 552.0316963319383,
      "semi_major_axis_km": 6927.622369587455,
      "eccentricity": 0.00019143,
      "inclination_deg": 97.6029,
      "raan_deg": 322.1556,
      "arg_perigee_deg": 67.1068,
      "mean_anomaly_deg": 293.0361,
      "mean_motion_rev_day": 15.05658406
    },
    {
      "epoch": "2026-03-30T21:25:24.543552Z",
      "apogee_km": 550.7666287055208,
      "perigee_km": 548.19468137491,
      "latitude_deg": 8.258652301060619e-06,
      "longitude_deg": 172.8526784873713,
      "height_km": 552.0781294097162,
      "semi_major_axis_km": 6927.617655040215,
      "eccentricity": 0.00018563,
      "inclination_deg": 97.6031,
      "raan_deg": 322.4828,
      "arg_perigee_deg": 68.8108,
      "mean_anomaly_deg": 291.3317,
      "mean_motion_rev_day": 15.05659943
    },
    {
      "epoch": "2026-03-31T21:20:53.638944Z",
      "apogee_km": 550.6300950982431,
      "perigee_km": 548.2456238316154,
      "latitude_deg": -5.1932941623973835e-06,
      "longitude_deg": 173.98179632959193,
      "height_km": 552.0479350664217,
      "semi_major_axis_km": 6927.574859464929,
      "eccentricity": 0.0001721,
      "inclination_deg": 97.6028,
      "raan_deg": 323.4657,
      "arg_perigee_deg": 67.6958,
      "mean_anomaly_deg": 292.4451,
      "mean_motion_rev_day": 15.05673895
    },
    {
      "epoch": "2026-04-01T21:16:24.690432Z",
      "apogee_km": 550.740463602162,
      "perigee_km": 548.3642661500089,
      "latitude_deg": 3.555511643123012e-05,
      "longitude_deg": 175.1032341370949,
      "height_km": 552.1255299864132,
      "semi_major_axis_km": 6927.689364876085,
      "eccentricity": 0.0001715,
      "inclination_deg": 97.6027,
      "raan_deg": 324.4491,
      "arg_perigee_deg": 65.6756,
      "mean_anomaly_deg": 294.465,
      "mean_motion_rev_day": 15.05636565
    },
    {
      "epoch": "2026-04-02T21:11:55.905216Z",
      "apogee_km": 550.6448768417604,
      "perigee_km": 548.4453377726904,
      "latitude_deg": 7.160993252438505e-06,
      "longitude_deg": 176.22179836905005,
      "height_km": 552.293160029836,
      "semi_major_axis_km": 6927.682107307225,
      "eccentricity": 0.00015875,
      "inclination_deg": 97.601,
      "raan_deg": 325.4303,
      "arg_perigee_deg": 73.3746,
      "mean_anomaly_deg": 286.7655,
      "mean_motion_rev_day": 15.05638931
    },
    {
      "epoch": "2026-04-03T14:44:38.285664Z",
      "apogee_km": 550.615803770922,
      "perigee_km": 548.4419022262518,
      "latitude_deg": -3.603733773510769e-05,
      "longitude_deg": -86.95503294911889,
      "height_km": 552.2334429173998,
      "semi_major_axis_km": 6927.665852998587,
      "eccentricity": 0.0001569,
      "inclination_deg": 97.601,
      "raan_deg": 326.1506,
      "arg_perigee_deg": 70.7592,
      "mean_anomaly_deg": 289.3804,
      "mean_motion_rev_day": 15.0564423
    },
    {
      "epoch": "2026-04-04T21:02:55.713408Z",
      "apogee_km": 550.4875990082382,
      "perigee_km": 548.4647359633327,
      "latitude_deg": 6.152113466749476e-05,
      "longitude_deg": 178.4721620424894,
      "height_km": 552.2023938241402,
      "semi_major_axis_km": 6927.613167485785,
      "eccentricity": 0.000146,
      "inclination_deg": 97.6018,
      "raan_deg": 327.395,
      "arg_perigee_deg": 70.5541,
      "mean_anomaly_deg": 289.5844,
      "mean_motion_rev_day": 15.05661406
    },
    {
      "epoch": "2026-04-05T14:35:37.248864Z",
      "apogee_km": 550.4367683377786,
      "perigee_km": 548.5039658823553,
      "latitude_deg": -7.791373519347609e-06,
      "longitude_deg": -84.70153661064455,
      "height_km": 552.2425159220522,
      "semi_major_axis_km": 6927.607367110067,
      "eccentricity": 0.0001395,
      "inclination_deg": 97.6018,
      "raan_deg": 328.1149,
      "arg_perigee_deg": 72.4815,
      "mean_anomaly_deg": 287.6564,
      "mean_motion_rev_day": 15.05663297
    },
    {
      "epoch": "2026-04-06T04:56:54.894624Z",
      "apogee_km": 550.3656063048702,
      "perigee_km": 548.5870108640229,
      "latitude_deg": 1.2617271032645737e-05,
      "longitude_deg": 59.97500060628763,
      "height_km": 552.2907245547955,
      "semi_major_axis_km": 6927.613308584446,
      "eccentricity": 0.00012837,
      "inclination_deg": 97.6024,
      "raan_deg": 328.7045,
      "arg_perigee_deg": 73.7547,
      "mean_anomaly_deg": 286.3821,
      "mean_motion_rev_day": 15.0566136
    },
    {
      "epoch": "2026-04-07T14:26:36.724416Z",
      "apogee_km": 550.4853848960665,
      "perigee_km": 548.5248621751052,
      "latitude_deg": 2.4516732299683282e-05,
      "longitude_deg": -82.4492843370829,
      "height_km": 552.3789681061288,
      "semi_major_axis_km": 6927.642123535586,
      "eccentricity": 0.0001415,
      "inclination_deg": 97.6042,
      "raan_deg": 330.0801,
      "arg_perigee_deg": 78.8811,
      "mean_anomaly_deg": 281.2575,
      "mean_motion_rev_day": 15.05651966
    },
    {
      "epoch": "2026-04-08T14:22:06.749472Z",
      "apogee_km": 550.5384577719406,
      "perigee_km": 548.4652925621585,
      "latitude_deg": 2.450213881160775e-05,
      "longitude_deg": -81.32355687297753,
      "height_km": 552.1790630091143,
      "semi_major_axis_km": 6927.638875167049,
      "eccentricity": 0.00014963,
      "inclination_deg": 97.6034,
      "raan_deg": 331.0635,
      "arg_perigee_deg": 68.1569,
      "mean_anomaly_deg": 291.9817,
      "mean_motion_rev_day": 15.05653025
    },
    {
      "epoch": "2026-04-09T12:41:54.714336Z",
      "apogee_km": 550.8729935037909,
      "perigee_km": 548.0617716453435,
      "latitude_deg": 4.519127308232573e-05,
      "longitude_deg": -56.27257611095578,
      "height_km": 552.2230339908001,
      "semi_major_axis_km": 6927.604382574567,
      "eccentricity": 0.0002029,
      "inclination_deg": 97.6037,
      "raan_deg": 331.9814,
      "arg_perigee_deg": 77.4169,
      "mean_anomaly_deg": 282.7285,
      "mean_motion_rev_day": 15.0566427
    },
    {
      "epoch": "2026-04-10T12:37:24.957984Z",
      "apogee_km": 550.7500825199868,
      "perigee_km": 548.2395087572468,
      "latitude_deg": 4.528145410437005e-05,
      "longitude_deg": -55.14826156286545,
      "height_km": 552.1779747476784,
      "semi_major_axis_km": 6927.6317956386165,
      "eccentricity": 0.0001812,
      "inclination_deg": 97.6035,
      "raan_deg": 332.9643,
      "arg_perigee_deg": 72.4216,
      "mean_anomaly_deg": 287.7209,
      "mean_motion_rev_day": 15.05655333
    },
    {
      "epoch": "2026-04-11T14:08:36.885120Z",
      "apogee_km": 550.6261544331746,
      "perigee_km": 548.3705163679688,
      "latitude_deg": 1.9433428085719317e-05,
      "longitude_deg": -77.94962490706685,
      "height_km": 552.4222907535748,
      "semi_major_axis_km": 6927.635335400571,
      "eccentricity": 0.0001628,
      "inclination_deg": 97.6051,
      "raan_deg": 334.0107,
      "arg_perigee_deg": 82.9444,
      "mean_anomaly_deg": 277.1968,
      "mean_motion_rev_day": 15.05654179
    },
    {
      "epoch": "2026-04-12T22:02:36.994272Z",
      "apogee_km": 550.6230344474998,
      "perigee_km": 548.3895622481132,
      "latitude_deg": -6.179515288491165e-05,
      "longitude_deg": 163.55014227837157,
      "height_km": 552.4150761744247,
      "semi_major_axis_km": 6927.643298347806,
      "eccentricity": 0.0001612,
      "inclination_deg": 97.6053,
      "raan_deg": 335.321,
      "arg_perigee_deg": 82.0869,
      "mean_anomaly_deg": 278.054,
      "mean_motion_rev_day": 15.05651583
    }
  ]
}